[{"OBJECT_NAME":"SAUDISAT 1C (SO-50)","OBJECT_ID":"2002-058C","EPOCH":"2026-03-07T12:38:22.032096","MEAN_MOTION":14.82773564,"ECCENTRICITY":0.00752084,"INCLINATION":64.552,"RA_OF_ASC_NODE":83.4621,"ARG_OF_PERICENTER":281.1057,"MEAN_ANOMALY":78.1598,"EPHEMERIS_TYPE":0,"CLASSIFICATION_TYPE":"U","NORAD_CAT_ID":27607,"ELEMENT_SET_NO":999,"REV_AT_EPOCH":24938,"BSTAR":0.00031773018,"MEAN_MOTION_DOT":2.551e-5,"MEAN_MOTION_DDOT":0},{"OBJECT_NAME":"SAUDISAT 2","OBJECT_ID":"2004-025F","EPOCH":"2026-03-07T13:44:30.442848","MEAN_MOTION":14.56614439,"ECCENTRICITY":0.00235977,"INCLINATION":98.5498,"RA_OF_ASC_NODE":63.9418,"ARG_OF_PERICENTER":247.9652,"MEAN_ANOMALY":111.9039,"EPHEMERIS_TYPE":0,"CLASSIFICATION_TYPE":"U","NORAD_CAT_ID":28371,"ELEMENT_SET_NO":999,"REV_AT_EPOCH":15095,"BSTAR":0.00012720676,"MEAN_MOTION_DOT":5.19e-6,"MEAN_MOTION_DDOT":0},{"OBJECT_NAME":"SAUDISAT 3","OBJECT_ID":"2007-012B","EPOCH":"2026-03-07T09:20:24.739872","MEAN_MOTION":14.71351585,"ECCENTRICITY":0.00144147,"INCLINATION":98.1347,"RA_OF_ASC_NODE":16.7939,"ARG_OF_PERICENTER":186.1665,"MEAN_ANOMALY":173.9366,"EPHEMERIS_TYPE":0,"CLASSIFICATION_TYPE":"U","NORAD_CAT_ID":31118,"ELEMENT_SET_NO":999,"REV_AT_EPOCH":1277,"BSTAR":0.00010277139,"MEAN_MOTION_DOT":5.85e-6,"MEAN_MOTION_DDOT":0},{"OBJECT_NAME":"PISAT","OBJECT_ID":"2016-059B","EPOCH":"2026-03-07T13:51:01.167840","MEAN_MOTION":14.68767973,"ECCENTRICITY":0.00293718,"INCLINATION":97.8192,"RA_OF_ASC_NODE":71.4105,"ARG_OF_PERICENTER":167.3892,"MEAN_ANOMALY":192.8056,"EPHEMERIS_TYPE":0,"CLASSIFICATION_TYPE":"U","NORAD_CAT_ID":41784,"ELEMENT_SET_NO":999,"REV_AT_EPOCH":50482,"BSTAR":0.00027679311,"MEAN_MOTION_DOT":1.577e-5,"MEAN_MOTION_DDOT":0},{"OBJECT_NAME":"FLYING LAPTOP","OBJECT_ID":"2017-042G","EPOCH":"2026-03-07T15:27:29.904768","MEAN_MOTION":15.00499223,"ECCENTRICITY":0.00189631,"INCLINATION":97.4268,"RA_OF_ASC_NODE":226.4089,"ARG_OF_PERICENTER":102.0972,"MEAN_ANOMALY":258.2379,"EPHEMERIS_TYPE":0,"CLASSIFICATION_TYPE":"U","NORAD_CAT_ID":42831,"ELEMENT_SET_NO":999,"REV_AT_EPOCH":47122,"BSTAR":0.0002444663,"MEAN_MOTION_DOT":3.034e-5,"MEAN_MOTION_DDOT":0},{"OBJECT_NAME":"SALSAT","OBJECT_ID":"2020-068K","EPOCH":"2026-03-07T12:17:36.532896","MEAN_MOTION":15.28132776,"ECCENTRICITY":0.00084131,"INCLINATION":97.8857,"RA_OF_ASC_NODE":63.5159,"ARG_OF_PERICENTER":306.1351,"MEAN_ANOMALY":53.9108,"EPHEMERIS_TYPE":0,"CLASSIFICATION_TYPE":"U","NORAD_CAT_ID":46495,"ELEMENT_SET_NO":999,"REV_AT_EPOCH":29982,"BSTAR":0.0005012467,"MEAN_MOTION_DOT":0.0001369,"MEAN_MOTION_DDOT":0}]
