SAUDISAT 1C (SO-50)     
1 27607U 02058C   26066.52664389  .00002551  00000+0  31773-3 0  9996
2 27607  64.5520  83.4621 0075208 281.1057  78.1598 14.82773564249387
SAUDISAT 2              
1 28371U 04025F   26066.57257457  .00000519  00000+0  12721-3 0  9994
2 28371  98.5498  63.9418 0023597 247.9652 111.9039 14.56614439150955
SAUDISAT 3              
1 31118U 07012B   26066.38917523  .00000585  00000+0  10277-3 0  9999
2 31118  98.1347  16.7939 0014414 186.1665 173.9366 14.71351585 12772
PISAT                   
1 41784U 16059B   26066.57709685  .00001577  00000+0  27679-3 0  9995
2 41784  97.8192  71.4105 0029371 167.3892 192.8056 14.68767973504826
FLYING LAPTOP           
1 42831U 17042G   26066.64409612  .00003034  00000+0  24447-3 0  9997
2 42831  97.4268 226.4089 0018963 102.0972 258.2379 15.00499223471222
SALSAT                  
1 46495U 20068K   26066.51222839  .00013690  00000+0  50125-3 0  9990
2 46495  97.8857  63.5159 0008413 306.1351  53.9108 15.28132776299826
